QIANFAN-73              
1 63159U 25046A   25283.27995447  .00000125  00000+0  17541-3 0  9996
2 63159  88.9804 326.5911 0013124 312.2231  47.7805 13.50968437 38845
QIANFAN-74              
1 63160U 25046B   25283.26349431  .00000140  00000+0  19825-3 0  9997
2 63160  88.9804 326.4811 0002214 101.5837 258.5562 13.50970351 38901
QIANFAN-75              
1 63161U 25046C   25283.25112025  .00000093  00000+0  12530-3 0  9997
2 63161  88.9806 326.7150 0014262 315.3326  44.6675 13.50977989 38775
QIANFAN-76              
1 63162U 25046D   25283.24704987  .00000063  00000+0  79850-4 0  9997
2 63162  88.9805 326.6964 0011840 317.0225  43.0001 13.50971738 38786
QIANFAN-77              
1 63163U 25046E   25283.25442219  .00000372  00000+0  26178-3 0  9993
2 63163  88.9801 325.2242 0012450 279.3392  80.6377 13.96067316 39591
QIANFAN-78              
1 63164U 25046F   25283.28822278  .00000139  00000+0  19666-3 0  9999
2 63164  88.9804 326.5568 0013282 318.8535  41.1613 13.50970704 38860
QIANFAN-79              
1 63165U 25046G   25283.24283436  .00000148  00000+0  21038-3 0  9999
2 63165  88.9808 326.6665 0012925 317.1632  42.8511 13.50969826 38809
QIANFAN-80              
1 63166U 25046H   25283.25941015  .00000157  00000+0  22436-3 0  9998
2 63166  88.9800 326.3734 0012031 322.6166  37.4147 13.50970275 38969
